$HEHDT,45.0,T*1E
$GPRMC,120000.00,A,3630.0000,N,01512.0000,E,16.0,44.5,300926,,,A*50
$GPGGA,120000.00,3630.0000,N,01512.0000,E,1,09,0.9,12.0,M,38.5,M,,*53
$GPVTG,44.5,T,41.8,M,16.0,N,29.6,K,A*21
$RATTM,01,6.50,70.0,T,9.0,200.0,T,2.10,18.5,N,,T,,120000.00,A*05
$RATTM,02,3.80,165.0,T,4.0,300.0,T,0.40,11.2,N,FISHING,T,,120000.00,A*6A
$RATTM,03,10.50,275.0,T,13.0,80.0,T,,,N,,T,,120000.00,A*09
$RATTM,04,14.20,15.0,T,22.0,190.0,T,0.90,25.0,N,,T,,120000.00,A*05
$RATLL,05,3636.8946,N,01504.8036,E,BUOY,120000.00,T,*23
$RATTM,06,12.00,120.0,T,0.0,0.0,T,,,N,,L,,120000.00,A*1A
